[{"OBJECT_NAME":"SITRO-AIS 15","OBJECT_ID":"2024-199D","EPOCH":"2026-03-09T21:41:54.706560","MEAN_MOTION":14.9706426,"ECCENTRICITY":0.00074523,"INCLINATION":97.3312,"RA_OF_ASC_NODE":274.4424,"ARG_OF_PERICENTER":51.6231,"MEAN_ANOMALY":308.566,"EPHEMERIS_TYPE":0,"CLASSIFICATION_TYPE":"U","NORAD_CAT_ID":61738,"ELEMENT_SET_NO":999,"REV_AT_EPOCH":11696,"BSTAR":0.0003624053,"MEAN_MOTION_DOT":4.126e-5,"MEAN_MOTION_DDOT":0},{"OBJECT_NAME":"STARLINK-34019","OBJECT_ID":"2025-102L","EPOCH":"2026-03-09T13:04:44.810976","MEAN_MOTION":14.98333004,"ECCENTRICITY":0.00033338,"INCLINATION":70.001,"RA_OF_ASC_NODE":114.6939,"ARG_OF_PERICENTER":268.9305,"MEAN_ANOMALY":91.1472,"EPHEMERIS_TYPE":0,"CLASSIFICATION_TYPE":"U","NORAD_CAT_ID":64032,"ELEMENT_SET_NO":999,"REV_AT_EPOCH":4594,"BSTAR":0.00012630216,"MEAN_MOTION_DOT":1.414e-5,"MEAN_MOTION_DDOT":0}]
